{
  "type": "FeatureCollection",
  "features": [
    {
      "type": "Feature",
      "properties": {
        "norad_id": 40894,
        "name": "GAOFEN-9 01",
        "group": "resource",
        "lat": -49.20917033351595,
        "lon": 31.544566070197206,
        "alt_km": 630.0731841112465,
        "timestamp": "2025-12-09T11:33:54.457647+00:00",
        "meta_object_name": "GAOFEN-9 01",
        "meta_object_id": "2015-047A",
        "meta_epoch": "2025-12-09T05:18:32.702112",
        "meta_mean_motion": 14.82407459,
        "meta_eccentricity": 0.0028643,
        "meta_inclination": 97.6546,
        "meta_ra_of_asc_node": 22.3286,
        "meta_arg_of_pericenter": 45.4176,
        "meta_mean_anomaly": 314.9369,
        "meta_ephemeris_type": 0,
        "meta_classification_type": "U",
        "meta_norad_cat_id": 40894,
        "meta_element_set_no": 999,
        "meta_rev_at_epoch": 55204,
        "meta_bstar": 0.00022415,
        "meta_mean_motion_dot": 1.757e-05,
        "meta_mean_motion_ddot": 0,
        "tle_line1": "1 40894U 15047A   25343.22121183  .00001757  00000+0  22415-3 0  9995",
        "tle_line2": "2 40894  97.6546  22.3286 0028643  45.4176 314.9369 14.82407459552042"
      },
      "geometry": {
        "type": "Point",
        "coordinates": [
          31.544566070197206,
          -49.20917033351595
        ]
      }
    },
    {
      "type": "Feature",
      "properties": {
        "norad_id": 41026,
        "name": "YAOGAN-28",
        "group": "resource",
        "lat": -28.435153964131374,
        "lon": 125.33619123950528,
        "alt_km": 507.0755443658536,
        "timestamp": "2025-12-09T11:33:54.457657+00:00",
        "meta_object_name": "YAOGAN-28",
        "meta_object_id": "2015-064A",
        "meta_epoch": "2025-12-09T05:23:19.652064",
        "meta_mean_motion": 15.24257709,
        "meta_eccentricity": 0.001225,
        "meta_inclination": 97.2808,
        "meta_ra_of_asc_node": 121.1164,
        "meta_arg_of_pericenter": 137.5449,
        "meta_mean_anomaly": 222.6739,
        "meta_ephemeris_type": 0,
        "meta_classification_type": "U",
        "meta_norad_cat_id": 41026,
        "meta_element_set_no": 999,
        "meta_rev_at_epoch": 56171,
        "meta_bstar": 0.00044187,
        "meta_mean_motion_dot": 0.00010743,
        "meta_mean_motion_ddot": 0,
        "tle_line1": "1 41026U 15064A   25343.22453301  .00010743  00000+0  44187-3 0  9997",
        "tle_line2": "2 41026  97.2808 121.1164 0012250 137.5449 222.6739 15.24257709561711"
      },
      "geometry": {
        "type": "Point",
        "coordinates": [
          125.33619123950528,
          -28.435153964131374
        ]
      }
    },
    {
      "type": "Feature",
      "properties": {
        "norad_id": 41038,
        "name": "YAOGAN-29",
        "group": "resource",
        "lat": -12.899122211381272,
        "lon": -175.20794764628502,
        "alt_km": 625.0601038241875,
        "timestamp": "2025-12-09T11:33:54.457667+00:00",
        "meta_object_name": "YAOGAN-29",
        "meta_object_id": "2015-069A",
        "meta_epoch": "2025-12-09T04:13:12.112896",
        "meta_mean_motion": 14.82878292,
        "meta_eccentricity": 4.11e-05,
        "meta_inclination": 98.0218,
        "meta_ra_of_asc_node": 6.3358,
        "meta_arg_of_pericenter": 355.7513,
        "meta_mean_anomaly": 4.3696,
        "meta_ephemeris_type": 0,
        "meta_classification_type": "U",
        "meta_norad_cat_id": 41038,
        "meta_element_set_no": 999,
        "meta_rev_at_epoch": 54246,
        "meta_bstar": 0.00015249,
        "meta_mean_motion_dot": 1.181e-05,
        "meta_mean_motion_ddot": 0,
        "tle_line1": "1 41038U 15069A   25343.17583464  .00001181  00000+0  15249-3 0  9996",
        "tle_line2": "2 41038  98.0218   6.3358 0000411 355.7513   4.3696 14.82878292542466"
      },
      "geometry": {
        "type": "Point",
        "coordinates": [
          -175.20794764628502,
          -12.899122211381272
        ]
      }
    },
    {
      "type": "Feature",
      "properties": {
        "norad_id": 41167,
        "name": "KENT RIDGE 1",
        "group": "resource",
        "lat": -14.464716702331968,
        "lon": 160.56728389197542,
        "alt_km": 505.4393358397301,
        "timestamp": "2025-12-09T11:33:54.457677+00:00",
        "meta_object_name": "KENT RIDGE 1",
        "meta_object_id": "2015-077B",
        "meta_epoch": "2025-12-08T23:18:29.879424",
        "meta_mean_motion": 15.21589468,
        "meta_eccentricity": 0.0008538,
        "meta_inclination": 14.979,
        "meta_ra_of_asc_node": 239.1062,
        "meta_arg_of_pericenter": 77.2496,
        "meta_mean_anomaly": 282.878,
        "meta_ephemeris_type": 0,
        "meta_classification_type": "U",
        "meta_norad_cat_id": 41167,
        "meta_element_set_no": 999,
        "meta_rev_at_epoch": 55206,
        "meta_bstar": 0.00022039,
        "meta_mean_motion_dot": 5.884e-05,
        "meta_mean_motion_ddot": 0,
        "tle_line1": "1 41167U 15077B   25342.97117916  .00005884  00000+0  22039-3 0  9999",
        "tle_line2": "2 41167  14.9790 239.1062 0008538  77.2496 282.8780 15.21589468552065"
      },
      "geometry": {
        "type": "Point",
        "coordinates": [
          160.56728389197542,
          -14.464716702331968
        ]
      }
    },
    {
      "type": "Feature",
      "properties": {
        "norad_id": 41194,
        "name": "GAOFEN-4",
        "group": "resource",
        "lat": -0.15398102606572292,
        "lon": -2.3419803175831477,
        "alt_km": 35801.42689572178,
        "timestamp": "2025-12-09T11:33:54.457690+00:00",
        "meta_object_name": "GAOFEN-4",
        "meta_object_id": "2015-083A",
        "meta_epoch": "2025-12-09T00:22:47.064000",
        "meta_mean_motion": 1.00270911,
        "meta_eccentricity": 0.0003628,
        "meta_inclination": 0.1609,
        "meta_ra_of_asc_node": 80.6946,
        "meta_arg_of_pericenter": 106.792,
        "meta_mean_anomaly": 1.9288,
        "meta_ephemeris_type": 0,
        "meta_classification_type": "U",
        "meta_norad_cat_id": 41194,
        "meta_element_set_no": 999,
        "meta_rev_at_epoch": 3662,
        "meta_bstar": 0,
        "meta_mean_motion_dot": -3.33e-06,
        "meta_mean_motion_ddot": 0,
        "tle_line1": "1 41194U 15083A   25343.01582250 -.00000333  00000+0  00000+0 0  9994",
        "tle_line2": "2 41194   0.1609  80.6946 0003628 106.7920   1.9288  1.00270911 36620"
      },
      "geometry": {
        "type": "Point",
        "coordinates": [
          -2.3419803175831477,
          -0.15398102606572292
        ]
      }
    },
    {
      "type": "Feature",
      "properties": {
        "norad_id": 41240,
        "name": "JASON-3",
        "group": "resource",
        "lat": -26.043843649934253,
        "lon": 152.12336952320206,
        "alt_km": 1312.9393263268212,
        "timestamp": "2025-12-09T11:33:54.457701+00:00",
        "meta_object_name": "JASON-3",
        "meta_object_id": "2016-002A",
        "meta_epoch": "2025-12-09T04:15:27.031680",
        "meta_mean_motion": 12.87626347,
        "meta_eccentricity": 0.0007134,
        "meta_inclination": 66.0389,
        "meta_ra_of_asc_node": 165.3138,
        "meta_arg_of_pericenter": 270.5939,
        "meta_mean_anomaly": 89.4262,
        "meta_ephemeris_type": 0,
        "meta_classification_type": "U",
        "meta_norad_cat_id": 41240,
        "meta_element_set_no": 999,
        "meta_rev_at_epoch": 46278,
        "meta_bstar": 5.7794e-05,
        "meta_mean_motion_dot": -4.8e-07,
        "meta_mean_motion_ddot": 0,
        "tle_line1": "1 41240U 16002A   25343.17739620 -.00000048  00000+0  57794-4 0  9990",
        "tle_line2": "2 41240  66.0389 165.3138 0007134 270.5939  89.4262 12.87626347462786"
      },
      "geometry": {
        "type": "Point",
        "coordinates": [
          152.12336952320206,
          -26.043843649934253
        ]
      }
    },
    {
      "type": "Feature",
      "properties": {
        "norad_id": 41335,
        "name": "SENTINEL-3A",
        "group": "resource",
        "lat": -9.499241323803027,
        "lon": -132.91661707794145,
        "alt_km": 806.7986543063553,
        "timestamp": "2025-12-09T11:33:54.457717+00:00",
        "meta_object_name": "SENTINEL-3A",
        "meta_object_id": "2016-011A",
        "meta_epoch": "2025-12-09T03:56:50.722944",
        "meta_mean_motion": 14.26744387,
        "meta_eccentricity": 9.53e-05,
        "meta_inclination": 98.6211,
        "meta_ra_of_asc_node": 48.2254,
        "meta_arg_of_pericenter": 93.0579,
        "meta_mean_anomaly": 267.0711,
        "meta_ephemeris_type": 0,
        "meta_classification_type": "U",
        "meta_norad_cat_id": 41335,
        "meta_element_set_no": 999,
        "meta_rev_at_epoch": 51096,
        "meta_bstar": 0.00011358,
        "meta_mean_motion_dot": 2.31e-06,
        "meta_mean_motion_ddot": 0,
        "tle_line1": "1 41335U 16011A   25343.16447596  .00000231  00000+0  11358-3 0  9990",
        "tle_line2": "2 41335  98.6211  48.2254 0000953  93.0579 267.0711 14.26744387510961"
      },
      "geometry": {
        "type": "Point",
        "coordinates": [
          -132.91661707794145,
          -9.499241323803027
        ]
      }
    }
  ]
}